start=new Date('2023-03-14T00:00:00.000Z').valueOf();
sats=[{"MEAN_MOTION_DOT":"0.00008096","ELEMENT_SET_NO":"999","EPHEMERIS_TYPE":"0","TLE_LINE2":"2 53032  53.2158 305.4405 0001128 110.8113 249.3000 15.08912128 38160","MEAN_MOTION_DDOT":"0.0000000000000","EPOCH":"2023-03-13T21:08:31.418016","CLASSIFICATION_TYPE":"U","PERIAPSIS":"538.745","TLE_LINE1":"1 53032U 22076AY  23072.88091919  .00008096  00000-0  52512-3 0  9990","MEAN_MOTION":"15.08912128","GP_ID":"228033398","BSTAR":"0.00052512000000","NORAD_CAT_ID":"53032","LAUNCH_DATE":"2022-07-07","RCS_SIZE":"LARGE","COUNTRY_CODE":"US","OBJECT_NAME":"STARLINK-4115","PERIOD":"95.433","OBJECT_TYPE":"PAYLOAD","OBJECT_ID":"2022-076AY","DECAY_DATE":null,"TIME_SYSTEM":"UTC","REV_AT_EPOCH":"3816","ECCENTRICITY":"0.00011280","APOAPSIS":"540.305","SITE":"AFETR","SEMIMAJOR_AXIS":"6917.660","MEAN_ANOMALY":"249.3000","REF_FRAME":"TEME","CENTER_NAME":"EARTH","ARG_OF_PERICENTER":"110.8113","RA_OF_ASC_NODE":"305.4405","MEAN_ELEMENT_THEORY":"SGP4","FILE":"3859631","INCLINATION":"53.2158"},{"BSTAR":"0.00014390000000","GP_ID":"228033648","NORAD_CAT_ID":"53033","PERIAPSIS":"539.223","TLE_LINE1":"1 53033U 22076AZ  23072.92237448  .00002003  00000-0  14390-3 0  9999","MEAN_MOTION":"15.08832258","TLE_LINE2":"2 53033  53.2157 295.2522 0000790 109.6044 250.5033 15.08832258 38300","MEAN_MOTION_DDOT":"0.0000000000000","CLASSIFICATION_TYPE":"U","EPOCH":"2023-03-13T22:08:13.155072","MEAN_MOTION_DOT":"0.00002003","ELEMENT_SET_NO":"999","EPHEMERIS_TYPE":"0","SITE":"AFETR","MEAN_ANOMALY":"250.5033","SEMIMAJOR_AXIS":"6917.904","REF_FRAME":"TEME","CENTER_NAME":"EARTH","ARG_OF_PERICENTER":"109.6044","MEAN_ELEMENT_THEORY":"SGP4","RA_OF_ASC_NODE":"295.2522","INCLINATION":"53.2157","FILE":"3859631","OBJECT_ID":"2022-076AZ","DECAY_DATE":null,"TIME_SYSTEM":"UTC","REV_AT_EPOCH":"3830","ECCENTRICITY":"0.00007900","APOAPSIS":"540.316","RCS_SIZE":"LARGE","COUNTRY_CODE":"US","OBJECT_NAME":"STARLINK-4167","PERIOD":"95.438","OBJECT_TYPE":"PAYLOAD","LAUNCH_DATE":"2022-07-07"},{"TIME_SYSTEM":"UTC","DECAY_DATE":null,"OBJECT_ID":"2022-076BA","APOAPSIS":"540.616","REV_AT_EPOCH":"3871","ECCENTRICITY":"0.00012360","CENTER_NAME":"EARTH","ARG_OF_PERICENTER":"89.5229","RA_OF_ASC_NODE":"296.7212","MEAN_ELEMENT_THEORY":"SGP4","SITE":"AFETR","SEMIMAJOR_AXIS":"6917.896","MEAN_ANOMALY":"270.5904","REF_FRAME":"TEME","INCLINATION":"53.2157","FILE":"3859555","LAUNCH_DATE":"2022-07-07","PERIOD":"95.438","RCS_SIZE":"LARGE","COUNTRY_CODE":"US","OBJECT_NAME":"STARLINK-4151","OBJECT_TYPE":"PAYLOAD","PERIAPSIS":"538.906","TLE_LINE1":"1 53034U 22076BA  23072.59485328 -.00002390  00000-0 -13212-3 0  9998","MEAN_MOTION":"15.08834995","NORAD_CAT_ID":"53034","BSTAR":"-0.00013212000000","GP_ID":"228010482","MEAN_MOTION_DOT":"-0.00002390","ELEMENT_SET_NO":"999","EPHEMERIS_TYPE":"0","TLE_LINE2":"2 53034  53.2157 296.7212 0001236  89.5229 270.5904 15.08834995 38714","CLASSIFICATION_TYPE":"U","EPOCH":"2023-03-13T14:16:35.323392","MEAN_MOTION_DDOT":"0.0000000000000"},{"BSTAR":"0.00062581000000","GP_ID":"228003770","NORAD_CAT_ID":"53035","MEAN_MOTION":"15.08860190","TLE_LINE1":"1 53035U 22076BB  23071.98764305  .00009691  00000-0  62581-3 0  9998","PERIAPSIS":"538.934","MEAN_MOTION_DDOT":"0.0000000000000","EPOCH":"2023-03-12T23:42:12.359520","CLASSIFICATION_TYPE":"U","TLE_LINE2":"2 53035  53.2152 299.4523 0001084  79.6794 280.4320 15.08860190 38160","EPHEMERIS_TYPE":"0","ELEMENT_SET_NO":"999","MEAN_MOTION_DOT":"0.00009691","FILE":"3859425","INCLINATION":"53.2152","SEMIMAJOR_AXIS":"6917.819","MEAN_ANOMALY":"280.4320","REF_FRAME":"TEME","SITE":"AFETR","MEAN_ELEMENT_THEORY":"SGP4","ARG_OF_PERICENTER":"79.6794","RA_OF_ASC_NODE":"299.4523","CENTER_NAME":"EARTH","ECCENTRICITY":"0.00010840","REV_AT_EPOCH":"3816","APOAPSIS":"540.434","OBJECT_ID":"2022-076BB","DECAY_DATE":null,"TIME_SYSTEM":"UTC","OBJECT_TYPE":"PAYLOAD","OBJECT_NAME":"STARLINK-4157","RCS_SIZE":"LARGE","COUNTRY_CODE":"US","PERIOD":"95.436","LAUNCH_DATE":"2022-07-07"},{"INCLINATION":"53.2155","FILE":"3859425","SITE":"AFETR","SEMIMAJOR_AXIS":"6917.781","MEAN_ANOMALY":"261.7557","REF_FRAME":"TEME","CENTER_NAME":"EARTH","RA_OF_ASC_NODE":"298.8747","ARG_OF_PERICENTER":"98.3578","MEAN_ELEMENT_THEORY":"SGP4","REV_AT_EPOCH":"3818","ECCENTRICITY":"0.00012590","APOAPSIS":"540.516","DECAY_DATE":null,"OBJECT_ID":"2022-076BC","TIME_SYSTEM":"UTC","OBJECT_TYPE":"PAYLOAD","RCS_SIZE":"LARGE","COUNTRY_CODE":"US","OBJECT_NAME":"STARLINK-4155","PERIOD":"95.435","LAUNCH_DATE":"2022-07-07","GP_ID":"228004020","BSTAR":"0.00085398000000","NORAD_CAT_ID":"53036","TLE_LINE1":"1 53036U 22076BC  23072.11643907  .00013341  00000-0  85398-3 0  9997","MEAN_MOTION":"15.08872671","PERIAPSIS":"538.775","MEAN_MOTION_DDOT":"0.0000000000000","CLASSIFICATION_TYPE":"U","EPOCH":"2023-03-13T02:47:40.335648","TLE_LINE2":"2 53036  53.2155 298.8747 0001259  98.3578 261.7557 15.08872671 38180","EPHEMERIS_TYPE":"0","MEAN_MOTION_DOT":"0.00013341","ELEMENT_SET_NO":"999"},{"PERIAPSIS":"538.820","TLE_LINE1":"1 53037U 22076BD  23072.24524412  .00025131  00000-0  15920-2 0  9994","MEAN_MOTION":"15.08828293","NORAD_CAT_ID":"53037","GP_ID":"228004762","BSTAR":"0.00159200000000","MEAN_MOTION_DOT":"0.00025131","ELEMENT_SET_NO":"999","EPHEMERIS_TYPE":"0","TLE_LINE2":"2 53037  53.2159 298.2949 0001389  47.2324 312.8785 15.08828293 38204","CLASSIFICATION_TYPE":"U","EPOCH":"2023-03-13T05:53:09.091968","MEAN_MOTION_DDOT":"0.0000000000000","TIME_SYSTEM":"UTC","OBJECT_ID":"2022-076BD","DECAY_DATE":null,"APOAPSIS":"540.742","REV_AT_EPOCH":"3820","ECCENTRICITY":"0.00013890","CENTER_NAME":"EARTH","RA_OF_ASC_NODE":"298.2949","ARG_OF_PERICENTER":"47.2324","MEAN_ELEMENT_THEORY":"SGP4","SITE":"AFETR","MEAN_ANOMALY":"312.8785","SEMIMAJOR_AXIS":"6917.916","REF_FRAME":"TEME","INCLINATION":"53.2159","FILE":"3859425","LAUNCH_DATE":"2022-07-07","PERIOD":"95.438","RCS_SIZE":"LARGE","COUNTRY_CODE":"US","OBJECT_NAME":"STARLINK-4153","OBJECT_TYPE":"PAYLOAD"},{"MEAN_MOTION_DOT":"-0.00002389","ELEMENT_SET_NO":"999","EPHEMERIS_TYPE":"0","TLE_LINE2":"2 53038  53.2156 295.3367 0000965 112.5699 247.5395 15.08831542 38307","CLASSIFICATION_TYPE":"U","EPOCH":"2023-03-13T21:41:43.304352","MEAN_MOTION_DDOT":"0.0000000000000","PERIAPSIS":"539.104","TLE_LINE1":"1 53038U 22076BE  23072.90397343 -.00002389  00000-0 -13213-3 0  9995","MEAN_MOTION":"15.08831542","NORAD_CAT_ID":"53038","BSTAR":"-0.00013213000000","GP_ID":"228034899","LAUNCH_DATE":"2022-07-07","PERIOD":"95.438","RCS_SIZE":"LARGE","COUNTRY_CODE":"US","OBJECT_NAME":"STARLINK-4156","OBJECT_TYPE":"PAYLOAD","TIME_SYSTEM":"UTC","OBJECT_ID":"2022-076BE","DECAY_DATE":null,"APOAPSIS":"540.439","REV_AT_EPOCH":"3830","ECCENTRICITY":"0.00009650","CENTER_NAME":"EARTH","ARG_OF_PERICENTER":"112.5699","RA_OF_ASC_NODE":"295.3367","MEAN_ELEMENT_THEORY":"SGP4","SITE":"AFETR","SEMIMAJOR_AXIS":"6917.906","MEAN_ANOMALY":"247.5395","REF_FRAME":"TEME","FILE":"3859631","INCLINATION":"53.2156"},{"PERIOD":"95.919","COUNTRY_CODE":"US","RCS_SIZE":"LARGE","OBJECT_NAME":"STARLINK-4362","OBJECT_TYPE":"PAYLOAD","LAUNCH_DATE":"2022-07-11","CENTER_NAME":"EARTH","RA_OF_ASC_NODE":"254.9190","ARG_OF_PERICENTER":"244.2218","MEAN_ELEMENT_THEORY":"SGP4","SITE":"AFWTR","MEAN_ANOMALY":"115.8930","SEMIMAJOR_AXIS":"6941.135","REF_FRAME":"TEME","INCLINATION":"97.6537","FILE":"3859425","TIME_SYSTEM":"UTC","OBJECT_ID":"2022-077A","DECAY_DATE":null,"APOAPSIS":"563.513","REV_AT_EPOCH":"3705","ECCENTRICITY":"0.00007390","TLE_LINE2":"2 53043  97.6537 254.9190 0000739 244.2218 115.8930 15.01263973 37055","CLASSIFICATION_TYPE":"U","EPOCH":"2023-03-13T11:26:57.208128","MEAN_MOTION_DDOT":"0.0000000000000","MEAN_MOTION_DOT":"0.00000598","ELEMENT_SET_NO":"999","EPHEMERIS_TYPE":"0","NORAD_CAT_ID":"53043","GP_ID":"228003271","BSTAR":"0.00005114700000","PERIAPSIS":"562.487","TLE_LINE1":"1 53043U 22077A   23072.47705102  .00000598  00000-0  51147-4 0  9997","MEAN_MOTION":"15.01263973"},{"PERIOD":"95.919","OBJECT_NAME":"STARLINK-4349","COUNTRY_CODE":"US","RCS_SIZE":"LARGE","OBJECT_TYPE":"PAYLOAD","LAUNCH_DATE":"2022-07-11","ARG_OF_PERICENTER":"236.5725","RA_OF_ASC_NODE":"255.1765","MEAN_ELEMENT_THEORY":"SGP4","CENTER_NAME":"EARTH","MEAN_ANOMALY":"123.5249","SEMIMAJOR_AXIS":"6941.138","REF_FRAME":"TEME","SITE":"AFWTR","INCLINATION":"97.6544","FILE":"3859631","TIME_SYSTEM":"UTC","DECAY_DATE":null,"OBJECT_ID":"2022-077B","APOAPSIS":"564.821","ECCENTRICITY":"0.00026190","REV_AT_EPOCH":"3709","TLE_LINE2":"2 53044  97.6544 255.1765 0002619 236.5725 123.5249 15.01262782 37091","CLASSIFICATION_TYPE":"U","EPOCH":"2023-03-13T17:45:32.252832","MEAN_MOTION_DDOT":"0.0000000000000","ELEMENT_SET_NO":"999","MEAN_MOTION_DOT":"0.00001197","EPHEMERIS_TYPE":"0","NORAD_CAT_ID":"53044","GP_ID":"228033399","BSTAR":"0.00009779100000","PERIAPSIS":"561.185","MEAN_MOTION":"15.01262782","TLE_LINE1":"1 53044U 22077B   23072.73995663  .00001197  00000-0  97791-4 0  9991"},{"TLE_LINE1":"1 53045U 22077C   23072.81216475  .00000577  00000-0  49545-4 0  9993","MEAN_MOTION":"15.01261201","PERIAPSIS":"561.828","BSTAR":"0.00004954500000","GP_ID":"228033649","NORAD_CAT_ID":"53045","EPHEMERIS_TYPE":"0","MEAN_MOTION_DOT":"0.00000577","ELEMENT_SET_NO":"999","MEAN_MOTION_DDOT":"0.0000000000000","EPOCH":"2023-03-13T19:29:31.034400","CLASSIFICATION_TYPE":"U","TLE_LINE2":"2 53045  97.6535 255.2325 0001700 253.2054 106.8984 15.01261201 37103","REV_AT_EPOCH":"3710","ECCENTRICITY":"0.00017000","APOAPSIS":"564.188","OBJECT_ID":"2022-077C","DECAY_DATE":null,"TIME_SYSTEM":"UTC","FILE":"3859631","INCLINATION":"97.6535","SITE":"AFWTR","SEMIMAJOR_AXIS":"6941.143","REF_FRAME":"TEME","MEAN_ANOMALY":"106.8984","CENTER_NAME":"EARTH","ARG_OF_PERICENTER":"253.2054","RA_OF_ASC_NODE":"255.2325","MEAN_ELEMENT_THEORY":"SGP4","LAUNCH_DATE":"2022-07-11","OBJECT_TYPE":"PAYLOAD","RCS_SIZE":"LARGE","COUNTRY_CODE":"US","OBJECT_NAME":"STARLINK-4350","PERIOD":"95.919"}];
